[{"OBJECT_NAME":"STARLINK-31818","OBJECT_ID":"2024-090M","EPOCH":"2026-03-09T08:04:56.864928","MEAN_MOTION":15.27574138,"ECCENTRICITY":0.0001345,"INCLINATION":43.002,"RA_OF_ASC_NODE":185.7023,"ARG_OF_PERICENTER":272.2238,"MEAN_ANOMALY":87.846,"EPHEMERIS_TYPE":0,"CLASSIFICATION_TYPE":"U","NORAD_CAT_ID":59741,"ELEMENT_SET_NO":999,"REV_AT_EPOCH":10338,"BSTAR":5.486458e-6,"MEAN_MOTION_DOT":-1.11e-6,"MEAN_MOTION_DDOT":0},{"OBJECT_NAME":"COSMOS 1461","OBJECT_ID":"1983-044A","EPOCH":"2026-03-09T23:27:40.254336","MEAN_MOTION":15.35034079,"ECCENTRICITY":0.00529955,"INCLINATION":64.9902,"RA_OF_ASC_NODE":19.3405,"ARG_OF_PERICENTER":227.9657,"MEAN_ANOMALY":131.6963,"EPHEMERIS_TYPE":0,"CLASSIFICATION_TYPE":"U","NORAD_CAT_ID":14064,"ELEMENT_SET_NO":999,"REV_AT_EPOCH":20189,"BSTAR":0.00068784348,"MEAN_MOTION_DOT":0.00024451,"MEAN_MOTION_DDOT":0}]
